STARLINK-30789          
1 58166C 23166S   26125.94631944  .00008539  00000+0  28793-3 0  1257
2 58166  53.1590 313.6703 0001209  90.6671 335.5304 15.30171127    17
STARLINK-30811          
1 58167C 23166T   26125.99284722  .00036536  00000+0  11757-2 0  1250
2 58167  53.1608 313.1564 0000714  55.4475  58.4806 15.31662319    16
STARLINK-30812          
1 58168C 23166U   26125.94145833  .00027543  00000+0  92903-3 0  1256
2 58168  53.1611 313.4416 0001197  75.3985  91.9716 15.30153084    18
STARLINK-30771          
1 58169C 23166V   26125.98104167  .00024871  00000+0  83864-3 0  1253
2 58169  53.1601 313.4044 0001218  91.2184 218.7104 15.30163892    15
STARLINK-30764          
1 58170C 23166W   26125.96090278  .00041164  00000+0  13883-2 0  1257
2 58170  53.1606 313.4640 0000980  73.4913 142.8867 15.30151128    13
STARLINK-30752          
1 58171C 23166X   26125.94354167  .00015241  00000+0  51391-3 0  1250
2 58171  53.1609 313.5011 0001165  87.9505  50.1900 15.30170483    17
STARLINK-30753          
1 58175C 23167A   26125.98104167  .00019292  00000+0  69891-3 0  1256
2 58175  42.9995 179.9593 0001627 258.7560 181.9250 15.27560803    12
STARLINK-30824          
1 58176C 23167B   26125.94423611 -.00001418  00000+0 -51370-4 0  1258
2 58176  42.9997 180.2154 0001449 267.5700 309.2468 15.27571910    16
STARLINK-30791          
1 58177C 23167C   26125.99284722  .00024440  00000+0  88605-3 0  1250
2 58177  43.0024 179.5415 0001297 263.5188  23.7226 15.27535376    14
STARLINK-30810          
1 58178C 23167D   26125.96854167  .00011950  00000+0  43292-3 0  1259
2 58178  43.0027 179.5218 0001384 265.3201 318.7831 15.27565096    13
STARLINK-30819          
1 58179C 23167E   26126.00881944  .00028780  00000+0  10429-2 0  1264
2 58179  42.9992 179.7088 0001545 272.2184 356.7795 15.27549675    12
STARLINK-30806          
1 58180C 23167F   26125.99909722  .00065122  00000+0  22756-2 0  1254
2 58180  42.9987 179.6364 0001699 304.0038 322.7633 15.28717125    18
STARLINK-30821          
1 58181C 23167G   26125.94631944  .00003582  00000+0  12978-3 0  1256
2 58181  43.0013 179.9059 0001513 266.0834  82.4857 15.27565550    11
STARLINK-30778          
1 58182C 23167H   26125.97062500  .00014334  00000+0  51949-3 0  1254
2 58182  43.0000 179.8018 0001615 277.1016 191.1468 15.27552014    17
STARLINK-30809          
1 58183C 23167J   26125.99354167 -.00010353  00000+0 -37530-3 0  1259
2 58183  43.0005 180.1302 0001567 251.2687 152.1566 15.27556767    12
STARLINK-30801          
1 58184C 23167K   26125.99215278 -.00014887  00000+0 -53963-3 0  1253
2 58184  43.0013 180.1871 0001517 254.9363 119.6196 15.27560065    12
STARLINK-30793          
1 58185C 23167L   26126.00395833 -.00002830  00000+0 -10260-3 0  1262
2 58185  42.9991 179.7112 0001673 266.5010 342.8453 15.27552361    15
STARLINK-30755          
1 58186C 23167M   26125.99562500 -.00006669  00000+0 -24170-3 0  1255
2 58186  43.0020 179.5137 0001448 261.4656  48.0809 15.27563507    10
STARLINK-30760          
1 58187C 23167N   26125.93937500 -.00002355  00000+0 -85336-4 0  1256
2 58187  43.0011 180.1230 0001688 276.2418 316.2810 15.27559968    17
STARLINK-30826          
1 58188C 23167P   26125.99006944  .00024592  00000+0  88991-3 0  1256
2 58188  42.9991 179.7764 0001548 273.1209 266.8157 15.27595583    15
STARLINK-30796          
1 58189C 23167Q   26125.99354167 -.00018100  00000+0 -65604-3 0  1256
2 58189  43.0023 179.4698 0001537 255.9194  63.4064 15.27564158    18
STARLINK-30820          
1 58190C 23167R   26126.00256944  .00031428  00000+0  11387-2 0  1260
2 58190  43.0027 179.3674 0001344 258.9267 131.3153 15.27551919    12
STARLINK-30785          
1 58191C 23167S   26125.94076389 -.00001351  00000+0 -48930-4 0  1255
2 58191  42.9997 180.2048 0001441 267.1982 297.5917 15.27570694    11
STARLINK-30807          
1 58192C 23167T   26126.00881944  .00027133  00000+0  98305-3 0  1260
2 58192  42.9991 179.7203 0001530 267.0841 354.8424 15.27554548    14
STARLINK-30822          
1 58193C 23167U   26125.94979167  .00002422  00000+0  87756-4 0  1250
2 58193  42.9992 180.2888 0001460 266.3702 291.5272 15.27568934    14
STARLINK-30830          
1 58194C 23167V   26125.99284722  .00027694  00000+0  10034-2 0  1253
2 58194  43.0023 179.4210 0001483 260.9883  68.6677 15.27555188    15
STARLINK-30827          
1 58195C 23167W   26125.98173611  .00021656  00000+0  78432-3 0  1256
2 58195  43.0029 179.4541 0001410 268.6196  20.9424 15.27570954    10
STARLINK-30798          
1 58196C 23167X   26125.98312500 -.00013721  00000+0 -49736-3 0  1250
2 58196  42.9992 180.0167 0001506 255.4350 161.3889 15.27558833    19
STARLINK-30762          
1 58197C 23167Y   26125.97340278 -.00033030  00000+0 -11972-2 0  1258
2 58197  43.0001 180.2043 0001531 254.6102  52.0854 15.27571411    17
STARLINK-30800          
1 58206C 23170A   26125.94215278 -.00079052  00000+0 -28634-2 0  1258
2 58206  43.0022 231.2670 0001755 259.2368   9.0826 15.27615210    14
STARLINK-30845          
1 58207C 23170B   26126.00048611 -.00028309  00000+0 -19321-2 0  1265
2 58207  42.9995 243.7770 0001613 263.8951 296.2201 15.05467140    13
STARLINK-30841          
1 58208C 23170C   26125.98104167 -.00201930  00000+0 -73161-2 0  1255
2 58208  43.0038 230.9009 0001662 266.9401 272.1850 15.27668155    11
STARLINK-30839          
1 58209C 23170D   26125.96645833  .00033034  00000+0  11970-2 0  1250
2 58209  43.0006 230.4418 0001683 279.6869  52.6047 15.27546199    10
STARLINK-30846          
1 58210C 23170E   26125.97756944 -.00009487  00000+0 -34401-3 0  1251
2 58210  43.0005 231.1711 0001657 258.9536 162.0018 15.27543897    13
STARLINK-30838          
1 58211C 23170F   26125.98659722 -.00011452  00000+0 -41531-3 0  1256
2 58211  42.9994 230.4642 0001713 277.2790 109.3069 15.27541888    11
STARLINK-30837          
1 58212C 23170G   26125.97479167 -.00008916  00000+0 -32342-3 0  1250
2 58212  43.0011 231.1135 0001614 257.0733 169.8491 15.27533876    10
STARLINK-30813          
1 58213C 23170H   26125.96020833 -.00212890  00000+0 -77092-2 0  1250
2 58213  42.9984 230.6655 0001903 267.7033 312.3352 15.27689654    18
STARLINK-30805          
1 58214C 23170J   26125.94701389 -.00215780  00000+0 -78148-2 0  1255
2 58214  42.9988 230.5878 0001680 259.3091 311.7509 15.27688489    14
STARLINK-30851          
1 58215C 23170K   26125.98590278 -.00010392  00000+0 -37687-3 0  1259
2 58215  42.9990 230.4141 0001493 262.0779 141.9132 15.27543236    11
STARLINK-30818          
1 58217C 23170M   26125.99423611 -.00220400  00000+0 -79833-2 0  1259
2 58217  42.9987 230.4538 0001873 272.1660 142.2975 15.27684553    19
STARLINK-30794          
1 58218C 23170N   26125.98104167 -.00180720  00000+0 -65472-2 0  1255
2 58218  42.9992 230.3941 0001646 265.1818 126.1672 15.27659861    17
STARLINK-30835          
1 58219C 23170P   26125.97618056 -.00017757  00000+0 -64393-3 0  1253
2 58219  43.0006 230.7083 0001463 259.2174 352.1845 15.27546958    18
STARLINK-30792          
1 58220C 23170Q   26125.98868056 -.00014011  00000+0 -92824-3 0  1253
2 58220  42.9995 242.9010 0005782 323.9489 203.7202 15.06547068    14
STARLINK-30836          
1 58221C 23170R   26125.94145833 -.00005356  00000+0 -19423-3 0  1257
2 58221  43.0020 230.9890 0001496 263.1684 121.7008 15.27538246    13
STARLINK-30855          
1 58222C 23170S   26125.99979167 -.00212110  00000+0 -76861-2 0  1254
2 58222  43.0031 230.8376 0001720 268.5655 352.5772 15.27668158    19
STARLINK-30840          
1 58223C 23170T   26125.95812500 -.00010491  00000+0 -38048-3 0  1252
2 58223  43.0029 231.1227 0001460 272.1360  98.3515 15.27539425    15
STARLINK-30875          
1 58224C 23170U   26125.95812500 -.00167420  00000+0 -60622-2 0  1250
2 58224  42.9992 230.5894 0001811 269.5378 327.2744 15.27669843    11
STARLINK-30872          
1 58225C 23170V   26125.96784722 -.00002036  00000+0 -73750-4 0  1255
2 58225  43.0022  88.8343 0001146 258.7178 265.9682 15.27581209    18
STARLINK-30865          
1 58226C 23170W   26125.98381944 -.00011415  00000+0 -41392-3 0  1254
2 58226  43.0024 219.4447 0001624 256.9293 106.9798 15.27547846    18
STARLINK-30874          
1 58227C 23170X   26125.96923611 -.00197980  00000+0 -71732-2 0  1258
2 58227  43.0023 230.8741 0001577 265.6273 250.9436 15.27665429    11
STARLINK-30871          
1 58228C 23170Y   26125.96159722 -.00154220  00000+0 -55865-2 0  1252
2 58228  43.0040 230.9579 0001549 263.0635 190.2358 15.27651113    18
STARLINK-30861          
1 58230C 23171A   26125.97479167  .00105770  00000+0  38970-2 0  1257
2 58230  42.9948 322.7824 0005661 258.5895  78.6913 15.26949106    12
STARLINK-30867          
1 58231C 23171B   26125.94631944  .00063066  00000+0  22825-2 0  1251
2 58231  43.0053 321.5700 0001900 276.5385 127.1734 15.27571927    12
STARLINK-30880          
1 58232C 23171C   26125.98520833  .00074035  00000+0  26807-2 0  1252
2 58232  43.0046 321.3050 0002010 277.1135   1.8990 15.27550996    19
STARLINK-30777          
1 58233C 23171D   26125.99284722  .00004875  00000+0  17677-3 0  1259
2 58233  43.0036 321.9598 0001431 263.3548 120.6506 15.27541668    12
STARLINK-30860          
1 58234C 23171E   26125.97965278  .00025709  00000+0  93227-3 0  1254
2 58234  43.0045 321.2815 0001922 283.6529 346.0474 15.27526165    10
STARLINK-30853          
1 58236C 23171G   26125.96923611  .00070240  00000+0  25434-2 0  1254
2 58236  43.0020 322.0450 0001337 279.1826 355.9925 15.27552307    16
STARLINK-30866          
1 58237C 23171H   26125.99006944  .00073802  00000+0  26732-2 0  1258
2 58237  43.0024 321.5418 0001332 274.9830 270.4366 15.27540434    10
STARLINK-30817          
1 58238C 23171J   26125.97965278 -.00029343  00000+0 -10638-2 0  1252
2 58238  43.0018 321.9300 0001251 280.1100  73.6906 15.27562683    10
